STARLINK-3707           
1 52133U 22029AX  26068.40279815  .00003046  00000+0  20924-3 0  9999
2 52133  53.2170  70.4056 0001201  91.3981 268.7149 15.08863217220890
CURIUM ONE              
1 60242U 24128H   26068.68697111  .00012574  00000+0  74107-3 0  9992
2 60242  61.9790 197.7537 0050891 110.7183 249.9377 15.10847276 91418
