[{"OBJECT_NAME":"STARLINK-3707","OBJECT_ID":"2022-029AX","EPOCH":"2026-03-09T09:40:01.760160","MEAN_MOTION":15.08863217,"ECCENTRICITY":0.00012015,"INCLINATION":53.217,"RA_OF_ASC_NODE":70.4056,"ARG_OF_PERICENTER":91.3981,"MEAN_ANOMALY":268.7149,"EPHEMERIS_TYPE":0,"CLASSIFICATION_TYPE":"U","NORAD_CAT_ID":52133,"ELEMENT_SET_NO":999,"REV_AT_EPOCH":22089,"BSTAR":0.00020923875,"MEAN_MOTION_DOT":3.046e-5,"MEAN_MOTION_DDOT":0},{"OBJECT_NAME":"CURIUM ONE","OBJECT_ID":"2024-128H","EPOCH":"2026-03-09T16:29:14.303904","MEAN_MOTION":15.10847276,"ECCENTRICITY":0.00508907,"INCLINATION":61.979,"RA_OF_ASC_NODE":197.7537,"ARG_OF_PERICENTER":110.7183,"MEAN_ANOMALY":249.9377,"EPHEMERIS_TYPE":0,"CLASSIFICATION_TYPE":"U","NORAD_CAT_ID":60242,"ELEMENT_SET_NO":999,"REV_AT_EPOCH":9141,"BSTAR":0.00074106619,"MEAN_MOTION_DOT":0.00012574,"MEAN_MOTION_DDOT":0}]
